TWILIGHT V              
1 67382U 26004V   26036.96562816  .00002967  00000+0  32884-3 0  9999
2 67382  97.8009  37.7164 0004467 174.4123 185.7144 14.88031249  3779
TWILIGHT W              
1 67383U 26004W   26036.97027554  .00002623  00000+0  29342-3 0  9990
2 67383  97.7985  37.7049 0004760 191.1222 168.9890 14.87760943  3776
TWILIGHT X              
1 67384U 26004X   26036.96314347 -.00007093  00000+0 -76448-3 0  9996
2 67384  97.7985  37.7140 0003720 174.9864 185.1391 14.88184609  3772
TWILIGHT Y              
1 67385U 26004Y   26036.96149319  .00009072  00000+0  98299-3 0  9997
2 67385  97.7997  37.7186 0003964 166.9226 193.2094 14.88426961  3779
TWILIGHT Z              
1 67386U 26004Z   26036.96022383  .00004249  00000+0  46459-3 0  9991
2 67386  97.7978  37.7170 0002737 164.4489 195.6813 14.88361059  3774
TWILIGHT AA             
1 67387U 26004AA  26036.95557111  .00008723  00000+0  93845-3 0  9995
2 67387  97.8028  37.7317 0004017 138.8807 221.2714 14.88730582  3774
TWILIGHT AB             
1 67388U 26004AB  26036.95359668  .00009105  00000+0  97685-3 0  9994
2 67388  97.8016  37.7323 0003584 129.2089 230.9447 14.88830758  3779
TWILIGHT AC             
1 67389U 26004AC  26036.94404819  .00008936  00000+0  45313-3 0  9995
2 67389  97.4574  37.9036 0005250  81.6015 278.5813 15.17165792  3845
CONNECTA IOT-16         
1 67390U 26004AD  26036.87812384  .00003306  00000+0  17082-3 0  9997
2 67390  97.4577  37.8403 0005468  78.4342 281.7504 15.16970342  3831
FLAMINGO-1              
1 67391U 26004AE  26036.94068192  .00008358  00000+0  42271-3 0  9996
2 67391  97.4527  37.8920 0006757  71.6877 288.5091 15.17269176  3845
TWILIGHT AF             
1 67392U 26004AF  26036.93335923  .00022031  00000+0  10795-2 0  9994
2 67392  97.4424  37.8480 0007693  75.9538 284.2551 15.18133919  3844
TWILIGHT AG             
1 67393U 26004AG  26036.93272766  .00015104  00000+0  74446-3 0  9997
2 67393  97.4568  37.9329 0007504  78.8374 281.3703 15.18011060  3847
