CCSDS_OMM_VERS = 2.0
CREATION_DATE  = 
ORIGINATOR     = 

OBJECT_NAME    = AETHER-11
OBJECT_ID      = 2026-004V
CENTER_NAME    = EARTH
REF_FRAME      = TEME
TIME_SYSTEM    = UTC
MEAN_ELEMENT_THEORY = SGP/SGP4

EPOCH          = 2026-02-05T23:10:30.273024
MEAN_MOTION    = 14.88031249
ECCENTRICITY   = .00044677
INCLINATION    = 97.8009
RA_OF_ASC_NODE = 37.7164
ARG_OF_PERICENTER = 174.4123
MEAN_ANOMALY   = 185.7144

EPHEMERIS_TYPE = 0
CLASSIFICATION_TYPE = U
NORAD_CAT_ID   = 67382
ELEMENT_SET_NO = 999
REV_AT_EPOCH   = 377
BSTAR          = .32883894E-3
MEAN_MOTION_DOT = .2967E-4
MEAN_MOTION_DDOT = 0

CCSDS_OMM_VERS = 2.0
CREATION_DATE  = 
ORIGINATOR     = 

OBJECT_NAME    = AETHER-12
OBJECT_ID      = 2026-004W
CENTER_NAME    = EARTH
REF_FRAME      = TEME
TIME_SYSTEM    = UTC
MEAN_ELEMENT_THEORY = SGP/SGP4

EPOCH          = 2026-02-05T23:17:11.806656
MEAN_MOTION    = 14.87760943
ECCENTRICITY   = .00047607
INCLINATION    = 97.7985
RA_OF_ASC_NODE = 37.7049
ARG_OF_PERICENTER = 191.1222
MEAN_ANOMALY   = 168.9890

EPHEMERIS_TYPE = 0
CLASSIFICATION_TYPE = U
NORAD_CAT_ID   = 67383
ELEMENT_SET_NO = 999
REV_AT_EPOCH   = 377
BSTAR          = .29341616E-3
MEAN_MOTION_DOT = .2623E-4
MEAN_MOTION_DDOT = 0

CCSDS_OMM_VERS = 2.0
CREATION_DATE  = 
ORIGINATOR     = 

OBJECT_NAME    = TWILIGHT X
OBJECT_ID      = 2026-004X
CENTER_NAME    = EARTH
REF_FRAME      = TEME
TIME_SYSTEM    = UTC
MEAN_ELEMENT_THEORY = SGP/SGP4

EPOCH          = 2026-02-05T23:06:55.595808
MEAN_MOTION    = 14.88184609
ECCENTRICITY   = .00037202
INCLINATION    = 97.7985
RA_OF_ASC_NODE = 37.7140
ARG_OF_PERICENTER = 174.9864
MEAN_ANOMALY   = 185.1391

EPHEMERIS_TYPE = 0
CLASSIFICATION_TYPE = U
NORAD_CAT_ID   = 67384
ELEMENT_SET_NO = 999
REV_AT_EPOCH   = 377
BSTAR          = -.76448076E-3
MEAN_MOTION_DOT = -.7093E-4
MEAN_MOTION_DDOT = 0

CCSDS_OMM_VERS = 2.0
CREATION_DATE  = 
ORIGINATOR     = 

OBJECT_NAME    = TWILIGHT Y
OBJECT_ID      = 2026-004Y
CENTER_NAME    = EARTH
REF_FRAME      = TEME
TIME_SYSTEM    = UTC
MEAN_ELEMENT_THEORY = SGP/SGP4

EPOCH          = 2026-02-05T23:04:33.011616
MEAN_MOTION    = 14.88426961
ECCENTRICITY   = .00039649
INCLINATION    = 97.7997
RA_OF_ASC_NODE = 37.7186
ARG_OF_PERICENTER = 166.9226
MEAN_ANOMALY   = 193.2094

EPHEMERIS_TYPE = 0
CLASSIFICATION_TYPE = U
NORAD_CAT_ID   = 67385
ELEMENT_SET_NO = 999
REV_AT_EPOCH   = 377
BSTAR          = .98298753E-3
MEAN_MOTION_DOT = .9072E-4
MEAN_MOTION_DDOT = 0

CCSDS_OMM_VERS = 2.0
CREATION_DATE  = 
ORIGINATOR     = 

OBJECT_NAME    = TWILIGHT Z
OBJECT_ID      = 2026-004Z
CENTER_NAME    = EARTH
REF_FRAME      = TEME
TIME_SYSTEM    = UTC
MEAN_ELEMENT_THEORY = SGP/SGP4

EPOCH          = 2026-02-05T23:02:43.338912
MEAN_MOTION    = 14.88361059
ECCENTRICITY   = .00027373
INCLINATION    = 97.7978
RA_OF_ASC_NODE = 37.7170
ARG_OF_PERICENTER = 164.4489
MEAN_ANOMALY   = 195.6813

EPHEMERIS_TYPE = 0
CLASSIFICATION_TYPE = U
NORAD_CAT_ID   = 67386
ELEMENT_SET_NO = 999
REV_AT_EPOCH   = 377
BSTAR          = .46458648E-3
MEAN_MOTION_DOT = .4249E-4
MEAN_MOTION_DDOT = 0

CCSDS_OMM_VERS = 2.0
CREATION_DATE  = 
ORIGINATOR     = 

OBJECT_NAME    = TWILIGHT AA
OBJECT_ID      = 2026-004AA
CENTER_NAME    = EARTH
REF_FRAME      = TEME
TIME_SYSTEM    = UTC
MEAN_ELEMENT_THEORY = SGP/SGP4

EPOCH          = 2026-02-05T22:56:01.343904
MEAN_MOTION    = 14.88730582
ECCENTRICITY   = .00040179
INCLINATION    = 97.8028
RA_OF_ASC_NODE = 37.7317
ARG_OF_PERICENTER = 138.8807
MEAN_ANOMALY   = 221.2714

EPHEMERIS_TYPE = 0
CLASSIFICATION_TYPE = U
NORAD_CAT_ID   = 67387
ELEMENT_SET_NO = 999
REV_AT_EPOCH   = 377
BSTAR          = .9384514E-3
MEAN_MOTION_DOT = .8723E-4
MEAN_MOTION_DDOT = 0

CCSDS_OMM_VERS = 2.0
CREATION_DATE  = 
ORIGINATOR     = 

OBJECT_NAME    = TWILIGHT AB
OBJECT_ID      = 2026-004AB
CENTER_NAME    = EARTH
REF_FRAME      = TEME
TIME_SYSTEM    = UTC
MEAN_ELEMENT_THEORY = SGP/SGP4

EPOCH          = 2026-02-05T22:53:10.753152
MEAN_MOTION    = 14.88830758
ECCENTRICITY   = .00035846
INCLINATION    = 97.8016
RA_OF_ASC_NODE = 37.7323
ARG_OF_PERICENTER = 129.2089
MEAN_ANOMALY   = 230.9447

EPHEMERIS_TYPE = 0
CLASSIFICATION_TYPE = U
NORAD_CAT_ID   = 67388
ELEMENT_SET_NO = 999
REV_AT_EPOCH   = 377
BSTAR          = .9768489E-3
MEAN_MOTION_DOT = .9105E-4
MEAN_MOTION_DDOT = 0

CCSDS_OMM_VERS = 2.0
CREATION_DATE  = 
ORIGINATOR     = 

OBJECT_NAME    = TWILIGHT AC
OBJECT_ID      = 2026-004AC
CENTER_NAME    = EARTH
REF_FRAME      = TEME
TIME_SYSTEM    = UTC
MEAN_ELEMENT_THEORY = SGP/SGP4

EPOCH          = 2026-02-05T22:39:25.763616
MEAN_MOTION    = 15.17165792
ECCENTRICITY   = .000525
INCLINATION    = 97.4574
RA_OF_ASC_NODE = 37.9036
ARG_OF_PERICENTER = 81.6015
MEAN_ANOMALY   = 278.5813

EPHEMERIS_TYPE = 0
CLASSIFICATION_TYPE = U
NORAD_CAT_ID   = 67389
ELEMENT_SET_NO = 999
REV_AT_EPOCH   = 384
BSTAR          = .45313244E-3
MEAN_MOTION_DOT = .8936E-4
MEAN_MOTION_DDOT = 0

CCSDS_OMM_VERS = 2.0
CREATION_DATE  = 
ORIGINATOR     = 

OBJECT_NAME    = CONNECTA IOT-16
OBJECT_ID      = 2026-004AD
CENTER_NAME    = EARTH
REF_FRAME      = TEME
TIME_SYSTEM    = UTC
MEAN_ELEMENT_THEORY = SGP/SGP4

EPOCH          = 2026-02-05T21:04:29.899776
MEAN_MOTION    = 15.16970342
ECCENTRICITY   = .0005468
INCLINATION    = 97.4577
RA_OF_ASC_NODE = 37.8403
ARG_OF_PERICENTER = 78.4342
MEAN_ANOMALY   = 281.7504

EPHEMERIS_TYPE = 0
CLASSIFICATION_TYPE = U
NORAD_CAT_ID   = 67390
ELEMENT_SET_NO = 999
REV_AT_EPOCH   = 383
BSTAR          = .17082259E-3
MEAN_MOTION_DOT = .3306E-4
MEAN_MOTION_DDOT = 0

CCSDS_OMM_VERS = 2.0
CREATION_DATE  = 
ORIGINATOR     = 

OBJECT_NAME    = FLAMINGO-1
OBJECT_ID      = 2026-004AE
CENTER_NAME    = EARTH
REF_FRAME      = TEME
TIME_SYSTEM    = UTC
MEAN_ELEMENT_THEORY = SGP/SGP4

EPOCH          = 2026-02-05T22:34:34.917888
MEAN_MOTION    = 15.17269176
ECCENTRICITY   = .00067577
INCLINATION    = 97.4527
RA_OF_ASC_NODE = 37.8920
ARG_OF_PERICENTER = 71.6877
MEAN_ANOMALY   = 288.5091

EPHEMERIS_TYPE = 0
CLASSIFICATION_TYPE = U
NORAD_CAT_ID   = 67391
ELEMENT_SET_NO = 999
REV_AT_EPOCH   = 384
BSTAR          = .42271232E-3
MEAN_MOTION_DOT = .8358E-4
MEAN_MOTION_DDOT = 0

CCSDS_OMM_VERS = 2.0
CREATION_DATE  = 
ORIGINATOR     = 

OBJECT_NAME    = TWILIGHT AF
OBJECT_ID      = 2026-004AF
CENTER_NAME    = EARTH
REF_FRAME      = TEME
TIME_SYSTEM    = UTC
MEAN_ELEMENT_THEORY = SGP/SGP4

EPOCH          = 2026-02-05T22:24:02.237472
MEAN_MOTION    = 15.18133919
ECCENTRICITY   = .00076935
INCLINATION    = 97.4424
RA_OF_ASC_NODE = 37.8480
ARG_OF_PERICENTER = 75.9538
MEAN_ANOMALY   = 284.2551

EPHEMERIS_TYPE = 0
CLASSIFICATION_TYPE = U
NORAD_CAT_ID   = 67392
ELEMENT_SET_NO = 999
REV_AT_EPOCH   = 384
BSTAR          = .10795248E-2
MEAN_MOTION_DOT = .22031E-3
MEAN_MOTION_DDOT = 0

CCSDS_OMM_VERS = 2.0
CREATION_DATE  = 
ORIGINATOR     = 

OBJECT_NAME    = TWILIGHT AG
OBJECT_ID      = 2026-004AG
CENTER_NAME    = EARTH
REF_FRAME      = TEME
TIME_SYSTEM    = UTC
MEAN_ELEMENT_THEORY = SGP/SGP4

EPOCH          = 2026-02-05T22:23:07.669824
MEAN_MOTION    = 15.18011060
ECCENTRICITY   = .00075049
INCLINATION    = 97.4568
RA_OF_ASC_NODE = 37.9329
ARG_OF_PERICENTER = 78.8374
MEAN_ANOMALY   = 281.3703

EPHEMERIS_TYPE = 0
CLASSIFICATION_TYPE = U
NORAD_CAT_ID   = 67393
ELEMENT_SET_NO = 999
REV_AT_EPOCH   = 384
BSTAR          = .74446025E-3
MEAN_MOTION_DOT = .15104E-3
MEAN_MOTION_DDOT = 0

